{
  "type": "FeatureCollection",
  "features": [
    {
      "type": "Feature",
      "properties": {
        "norad_id": 43783,
        "name": "KAZSTSAT",
        "group": "resource",
        "lat": -71.50386772515945,
        "lon": 58.53898347289302,
        "alt_km": 571.9387505309069,
        "timestamp": "2025-12-26T22:28:05.436974+00:00",
        "meta_object_name": "KAZSTSAT",
        "meta_object_id": "2018-099AB",
        "meta_epoch": "2025-12-26T14:47:05.534592",
        "meta_mean_motion": 14.99374835,
        "meta_eccentricity": 0.0006417,
        "meta_inclination": 97.451,
        "meta_ra_of_asc_node": 35.2021,
        "meta_arg_of_pericenter": 268.436,
        "meta_mean_anomaly": 91.6129,
        "meta_ephemeris_type": 0,
        "meta_classification_type": "U",
        "meta_norad_cat_id": 43783,
        "meta_element_set_no": 999,
        "meta_rev_at_epoch": 38544,
        "meta_bstar": 7.1084e-05,
        "meta_mean_motion_dot": 8.14e-06,
        "meta_mean_motion_ddot": 0,
        "tle_line1": "1 43783U 18099AB  25360.61603628  .00000814  00000+0  71084-4 0  9996",
        "tle_line2": "2 43783  97.4510  35.2021 0006417 268.4360  91.6129 14.99374835385448"
      },
      "geometry": {
        "type": "Point",
        "coordinates": [
          58.53898347289302,
          -71.50386772515945
        ]
      }
    },
    {
      "type": "Feature",
      "properties": {
        "norad_id": 43831,
        "name": "SAUDISAT 5A",
        "group": "resource",
        "lat": -64.61341938254567,
        "lon": -134.8930977198064,
        "alt_km": 501.7764803019809,
        "timestamp": "2025-12-26T22:28:05.436984+00:00",
        "meta_object_name": "SAUDISAT 5A",
        "meta_object_id": "2018-102A",
        "meta_epoch": "2025-12-26T18:14:49.926048",
        "meta_mean_motion": 15.25829349,
        "meta_eccentricity": 0.0010937,
        "meta_inclination": 97.333,
        "meta_ra_of_asc_node": 60.6803,
        "meta_arg_of_pericenter": 32.3807,
        "meta_mean_anomaly": 327.8101,
        "meta_ephemeris_type": 0,
        "meta_classification_type": "U",
        "meta_norad_cat_id": 43831,
        "meta_element_set_no": 999,
        "meta_rev_at_epoch": 38936,
        "meta_bstar": 0.00025237,
        "meta_mean_motion_dot": 6.395e-05,
        "meta_mean_motion_ddot": 0,
        "tle_line1": "1 43831U 18102A   25360.76030007  .00006395  00000+0  25237-3 0  9994",
        "tle_line2": "2 43831  97.3330  60.6803 0010937  32.3807 327.8101 15.25829349389361"
      },
      "geometry": {
        "type": "Point",
        "coordinates": [
          -134.8930977198064,
          -64.61341938254567
        ]
      }
    },
    {
      "type": "Feature",
      "properties": {
        "norad_id": 43833,
        "name": "SAUDISAT 5B",
        "group": "resource",
        "lat": -44.06623828186886,
        "lon": 70.7869543884855,
        "alt_km": 492.35611983022045,
        "timestamp": "2025-12-26T22:28:05.436995+00:00",
        "meta_object_name": "SAUDISAT 5B",
        "meta_object_id": "2018-102C",
        "meta_epoch": "2025-12-26T17:56:31.110720",
        "meta_mean_motion": 15.26173643,
        "meta_eccentricity": 0.0011699,
        "meta_inclination": 97.3426,
        "meta_ra_of_asc_node": 63.4317,
        "meta_arg_of_pericenter": 34.3987,
        "meta_mean_anomaly": 325.8006,
        "meta_ephemeris_type": 0,
        "meta_classification_type": "U",
        "meta_norad_cat_id": 43833,
        "meta_element_set_no": 999,
        "meta_rev_at_epoch": 38947,
        "meta_bstar": 0.00023972,
        "meta_mean_motion_dot": 6.135e-05,
        "meta_mean_motion_ddot": 0,
        "tle_line1": "1 43833U 18102C   25360.74758230  .00006135  00000+0  23972-3 0  9995",
        "tle_line2": "2 43833  97.3426  63.4317 0011699  34.3987 325.8006 15.26173643389471"
      },
      "geometry": {
        "type": "Point",
        "coordinates": [
          70.7869543884855,
          -44.06623828186886
        ]
      }
    },
    {
      "type": "Feature",
      "properties": {
        "norad_id": 44622,
        "name": "GAOFEN-10R",
        "group": "resource",
        "lat": -31.04737249840919,
        "lon": 123.62479728284343,
        "alt_km": 630.4960667307878,
        "timestamp": "2025-12-26T22:28:05.437005+00:00",
        "meta_object_name": "GAOFEN-10R",
        "meta_object_id": "2019-066A",
        "meta_epoch": "2025-12-26T18:16:44.641920",
        "meta_mean_motion": 14.8284001,
        "meta_eccentricity": 0.000684,
        "meta_inclination": 98.0296,
        "meta_ra_of_asc_node": 308.3243,
        "meta_arg_of_pericenter": 0.2859,
        "meta_mean_anomaly": 359.8357,
        "meta_ephemeris_type": 0,
        "meta_classification_type": "U",
        "meta_norad_cat_id": 44622,
        "meta_element_set_no": 999,
        "meta_rev_at_epoch": 33682,
        "meta_bstar": 0.00023517,
        "meta_mean_motion_dot": 1.85e-05,
        "meta_mean_motion_ddot": 0,
        "tle_line1": "1 44622U 19066A   25360.76162780  .00001850  00000+0  23517-3 0  9997",
        "tle_line2": "2 44622  98.0296 308.3243 0006840   0.2859 359.8357 14.82840010336829"
      },
      "geometry": {
        "type": "Point",
        "coordinates": [
          123.62479728284343,
          -31.04737249840919
        ]
      }
    },
    {
      "type": "Feature",
      "properties": {
        "norad_id": 44804,
        "name": "CARTOSAT-3",
        "group": "resource",
        "lat": 69.98648379928382,
        "lon": 39.26643743234005,
        "alt_km": 493.46500030889,
        "timestamp": "2025-12-26T22:28:05.437016+00:00",
        "meta_object_name": "CARTOSAT-3",
        "meta_object_id": "2019-081A",
        "meta_epoch": "2025-12-26T17:24:49.788864",
        "meta_mean_motion": 15.19271746,
        "meta_eccentricity": 0.0013571,
        "meta_inclination": 97.4556,
        "meta_ra_of_asc_node": 60.1301,
        "meta_arg_of_pericenter": 38.7455,
        "meta_mean_anomaly": 321.4751,
        "meta_ephemeris_type": 0,
        "meta_classification_type": "U",
        "meta_norad_cat_id": 44804,
        "meta_element_set_no": 999,
        "meta_rev_at_epoch": 33728,
        "meta_bstar": 0.00027979,
        "meta_mean_motion_dot": 5.846e-05,
        "meta_mean_motion_ddot": 0,
        "tle_line1": "1 44804U 19081A   25360.72557626  .00005846  00000+0  27979-3 0  9994",
        "tle_line2": "2 44804  97.4556  60.1301 0013571  38.7455 321.4751 15.19271746337287"
      },
      "geometry": {
        "type": "Point",
        "coordinates": [
          39.26643743234005,
          69.98648379928382
        ]
      }
    },
    {
      "type": "Feature",
      "properties": {
        "norad_id": 44819,
        "name": "GAOFEN-12 01",
        "group": "resource",
        "lat": 8.129094603853002,
        "lon": 5.720798112971421,
        "alt_km": 630.6824891293099,
        "timestamp": "2025-12-26T22:28:05.437026+00:00",
        "meta_object_name": "GAOFEN-12 01",
        "meta_object_id": "2019-082A",
        "meta_epoch": "2025-12-26T17:33:56.087424",
        "meta_mean_motion": 14.80673373,
        "meta_eccentricity": 0.0002337,
        "meta_inclination": 97.8125,
        "meta_ra_of_asc_node": 6.6456,
        "meta_arg_of_pericenter": 173.6897,
        "meta_mean_anomaly": 186.4346,
        "meta_ephemeris_type": 0,
        "meta_classification_type": "U",
        "meta_norad_cat_id": 44819,
        "meta_element_set_no": 999,
        "meta_rev_at_epoch": 32857,
        "meta_bstar": 7.7401e-05,
        "meta_mean_motion_dot": 5.44e-06,
        "meta_mean_motion_ddot": 0,
        "tle_line1": "1 44819U 19082A   25360.73189916  .00000544  00000+0  77401-4 0  9991",
        "tle_line2": "2 44819  97.8125   6.6456 0002337 173.6897 186.4346 14.80673373328572"
      },
      "geometry": {
        "type": "Point",
        "coordinates": [
          5.720798112971421,
          8.129094603853002
        ]
      }
    },
    {
      "type": "Feature",
      "properties": {
        "norad_id": 44873,
        "name": "CSG-1",
        "group": "resource",
        "lat": -15.372070328808395,
        "lon": -0.13583422932512706,
        "alt_km": 627.659656084973,
        "timestamp": "2025-12-26T22:28:05.437037+00:00",
        "meta_object_name": "CSG-1",
        "meta_object_id": "2019-092A",
        "meta_epoch": "2025-12-26T16:43:43.294368",
        "meta_mean_motion": 14.8216318,
        "meta_eccentricity": 0.0001448,
        "meta_inclination": 97.8805,
        "meta_ra_of_asc_node": 181.811,
        "meta_arg_of_pericenter": 84.8581,
        "meta_mean_anomaly": 275.2798,
        "meta_ephemeris_type": 0,
        "meta_classification_type": "U",
        "meta_norad_cat_id": 44873,
        "meta_element_set_no": 999,
        "meta_rev_at_epoch": 32592,
        "meta_bstar": 9.2071e-05,
        "meta_mean_motion_dot": 6.81e-06,
        "meta_mean_motion_ddot": 0,
        "tle_line1": "1 44873U 19092A   25360.69702887  .00000681  00000+0  92071-4 0  9997",
        "tle_line2": "2 44873  97.8805 181.8110 0001448  84.8581 275.2798 14.82163180325921"
      },
      "geometry": {
        "type": "Point",
        "coordinates": [
          -0.13583422932512706,
          -15.372070328808395
        ]
      }
    }
  ]
}